GLOBALSTAR M068         
1 32266U 07048D   24364.54623147 -.00000073  00000+0  17256-3 0  9993
2 32266  51.9886  99.3738 0001788 122.5975 355.0118 12.62812769796124
GLOBALSTAR M079         
1 37188U 10054A   24364.58915457 -.00000070  00000+0  18844-3 0  9995
2 37188  52.0051 296.0726 0000465  32.0138 139.0434 12.62268948655037
GLOBALSTAR M074         
1 37189U 10054B   24364.53634037 -.00000076  00000+0  15451-3 0  9990
2 37189  52.0028 295.5807 0000832  51.1962 120.4072 12.62260696655631
GLOBALSTAR M076         
1 37190U 10054C   24364.31794985 -.00000077  00000+0  15106-3 0  9995
2 37190  52.0042 296.4021 0000772  29.0937 109.1468 12.62275356655324
GLOBALSTAR M077         
1 37191U 10054D   24364.59662612 -.00000047  00000+0  31404-3 0  9993
2 37191  52.0064 252.3629 0000938  65.6393 318.8173 12.62269157655739
GLOBALSTAR M075         
1 37192U 10054E   24364.33325738 -.00000083  00000+0  11533-3 0  9992
2 37192  51.9968 338.7047 0000463  59.1508  89.6507 12.62270716654391
GLOBALSTAR M073         
1 37193U 10054F   24364.41750208 -.00000059  00000+0  25007-3 0  9990
2 37193  52.0052 252.1387 0000883  58.9365 112.7574 12.62261646656394
GLOBALSTAR M083         
1 37739U 11033A   24364.55530432 -.00000065  00000+0  21910-3 0  9990
2 37739  51.9830 200.6813 0000915  91.8782 286.3954 12.62270151625431
GLOBALSTAR M088         
1 37740U 11033B   24364.60690513 -.00000109  00000+0 -27782-4 0  9999
2 37740  51.9730 106.1564 0000790 126.7849 246.5358 12.62266731620988
GLOBALSTAR M091         
1 37741U 11033C   24364.65233378 -.00000084  00000+0  10754-3 0  9998
2 37741  52.0007  69.2718 0000652 154.7903   4.1879 12.62272171622036
GLOBALSTAR M085         
1 37742U 11033D   24364.56120969 -.00000086  00000+0  98095-4 0  9997
2 37742  51.9887  20.7367 0000285 154.9205  10.5477 12.62263289622273
GLOBALSTAR M081         
1 37743U 11033E   24364.58446500 -.00000081  00000+0  12576-3 0  9996
2 37743  51.9977  23.3471 0000047 219.9355 291.9544 12.62274622622423
GLOBALSTAR M089         
1 37744U 11033F   24364.46582413 -.00000087  00000+0  93146-4 0  9997
2 37744  51.9952 337.9701 0000609  36.7703 114.7671 12.62274168623253
GLOBALSTAR M084         
1 38040U 11080A   24364.52869837 -.00000065  00000+0  21760-3 0  9992
2 38040  51.9981 204.9761 0001307  73.9636 303.5839 12.62273095601245
GLOBALSTAR M080         
1 38041U 11080B   24364.58499168 -.00000068  00000+0  20098-3 0  9991
2 38041  52.0034 206.3546 0001254  59.5758 332.3112 12.62260053601378
GLOBALSTAR M082         
1 38042U 11080C   24364.60076095 -.00000109  00000+0 -29214-4 0  9992
2 38042  52.0052 161.7317 0001270 122.0994 282.5543 12.62271754602088
GLOBALSTAR M092         
1 38043U 11080D   24364.80824884 -.00000061  00000+0  23983-3 0  9994
2 38043  52.0073 251.4698 0001031  70.9654 317.0235 12.62271198600778
GLOBALSTAR M090         
1 38044U 11080E   24364.55640199 -.00000116  00000+0 -66402-4 0  9998
2 38044  51.9864 155.8931 0001012 113.5238 329.4381 12.62265372602197
GLOBALSTAR M086         
1 38045U 11080F   24364.57372816 -.00000102  00000+0  97061-5 0  9999
2 38045  51.9876 156.3779 0000412  47.2378 354.9514 12.62265290602143
GLOBALSTAR M097         
1 39072U 13005A   24364.59121729 -.00000096  00000+0  46031-4 0  9998
2 39072  52.0056  70.7015 0000453 143.2785 216.8113 12.62268281549472
GLOBALSTAR M093         
1 39073U 13005B   24364.56413213 -.00000086  00000+0  96396-4 0  9996
2 39073  51.9821  64.3535 0000415 150.0412 210.0478 12.62260431549343
GLOBALSTAR M094         
1 39074U 13005C   24364.64377752 -.00000099  00000+0  25014-4 0  9996
2 39074  51.9980 338.3269 0000095 356.8374   3.2492 12.62266471550985
GLOBALSTAR M096         
1 39075U 13005D   24364.57780522 -.00000086  00000+0  99340-4 0  9991
2 39075  52.0091  26.9097 0000323 176.1444 183.9426 12.62266160550220
GLOBALSTAR M078         
1 39076U 13005E   24364.55082656 -.00000115  00000+0 -64358-4 0  9998
2 39076  51.9868 111.7276 0001559 142.4363 217.6613 12.62267892548493
GLOBALSTAR M095         
1 39077U 13005F   24364.57762322 -.00000114  00000+0 -57687-4 0  9992
2 39077  51.9796 108.9299 0001099 151.0258 209.0669 12.62269827548356
GLOBALSTAR M087         
1 52888U 22064A   24364.08261099 -.00000058  00000+0  21127-3 0  9998
2 52888  51.9773 254.3400 0021366   4.2739 355.8318 12.88918210123511
